{
  "type": "FeatureCollection",
  "features": [
    {
      "type": "Feature",
      "properties": {
        "norad_id": 67019,
        "name": "STARLINK-35688",
        "group": "last-30-days",
        "lat": 4.52287374842423,
        "lon": 123.98750576501622,
        "alt_km": 287.41542773365654,
        "timestamp": "2025-12-18T23:35:47.784178+00:00",
        "meta_object_name": "STARLINK-35688",
        "meta_object_id": "2025-293S",
        "meta_epoch": "2025-12-17T20:00:01.999872",
        "meta_mean_motion": 15.98276517,
        "meta_eccentricity": 0.0004046,
        "meta_inclination": 69.9929,
        "meta_ra_of_asc_node": 309.003,
        "meta_arg_of_pericenter": 266.8307,
        "meta_mean_anomaly": 139.2631,
        "meta_ephemeris_type": 0,
        "meta_classification_type": "U",
        "meta_norad_cat_id": 67019,
        "meta_element_set_no": 999,
        "meta_rev_at_epoch": 238,
        "meta_bstar": -0.0022846334,
        "meta_mean_motion_dot": -0.01060835,
        "meta_mean_motion_ddot": 0.00035982479,
        "tle_line1": "1 67019U 25293S   25351.83335648 -.01060835  35982-3 -22846-2 0  9999",
        "tle_line2": "2 67019  69.9929 309.0030 0004046 266.8307 139.2631 15.98276517  2389"
      },
      "geometry": {
        "type": "Point",
        "coordinates": [
          123.98750576501622,
          4.52287374842423
        ]
      }
    },
    {
      "type": "Feature",
      "properties": {
        "norad_id": 67020,
        "name": "STARLINK-36172",
        "group": "last-30-days",
        "lat": 2.273774695947864,
        "lon": 124.80753239386654,
        "alt_km": 287.70151016851287,
        "timestamp": "2025-12-18T23:35:47.784188+00:00",
        "meta_object_name": "STARLINK-36172",
        "meta_object_id": "2025-293T",
        "meta_epoch": "2025-12-17T20:00:01.999872",
        "meta_mean_motion": 15.98392956,
        "meta_eccentricity": 0.00041092,
        "meta_inclination": 69.9928,
        "meta_ra_of_asc_node": 309.0006,
        "meta_arg_of_pericenter": 269.1784,
        "meta_mean_anomaly": 139.0522,
        "meta_ephemeris_type": 0,
        "meta_classification_type": "U",
        "meta_norad_cat_id": 67020,
        "meta_element_set_no": 999,
        "meta_rev_at_epoch": 238,
        "meta_bstar": -0.0023796759,
        "meta_mean_motion_dot": -0.01111702,
        "meta_mean_motion_ddot": 0.0003927821,
        "tle_line1": "1 67020U 25293T   25351.83335648 -.01111702  39278-3 -23797-2 0  9999",
        "tle_line2": "2 67020  69.9928 309.0006 0004109 269.1784 139.0522 15.98392956  2381"
      },
      "geometry": {
        "type": "Point",
        "coordinates": [
          124.80753239386654,
          2.273774695947864
        ]
      }
    },
    {
      "type": "Feature",
      "properties": {
        "norad_id": 67021,
        "name": "STARLINK-36184",
        "group": "last-30-days",
        "lat": 0.16455046786034952,
        "lon": 125.57375063817882,
        "alt_km": 287.6740413473426,
        "timestamp": "2025-12-18T23:35:47.784198+00:00",
        "meta_object_name": "STARLINK-36184",
        "meta_object_id": "2025-293U",
        "meta_epoch": "2025-12-17T20:00:01.999872",
        "meta_mean_motion": 15.98480747,
        "meta_eccentricity": 0.00041177,
        "meta_inclination": 69.993,
        "meta_ra_of_asc_node": 308.9981,
        "meta_arg_of_pericenter": 268.1462,
        "meta_mean_anomaly": 142.0312,
        "meta_ephemeris_type": 0,
        "meta_classification_type": "U",
        "meta_norad_cat_id": 67021,
        "meta_element_set_no": 999,
        "meta_rev_at_epoch": 238,
        "meta_bstar": -0.0024001961,
        "meta_mean_motion_dot": -0.01126646,
        "meta_mean_motion_ddot": 0.00040295633,
        "tle_line1": "1 67021U 25293U   25351.83335648 -.01126646  40296-3 -24002-2 0  9995",
        "tle_line2": "2 67021  69.9930 308.9981 0004117 268.1462 142.0312 15.98480747  2383"
      },
      "geometry": {
        "type": "Point",
        "coordinates": [
          125.57375063817882,
          0.16455046786034952
        ]
      }
    },
    {
      "type": "Feature",
      "properties": {
        "norad_id": 67022,
        "name": "STARLINK-36209",
        "group": "last-30-days",
        "lat": -2.3546301832676915,
        "lon": 126.4892113282919,
        "alt_km": 287.5121361188303,
        "timestamp": "2025-12-18T23:35:47.784208+00:00",
        "meta_object_name": "STARLINK-36209",
        "meta_object_id": "2025-293V",
        "meta_epoch": "2025-12-17T20:00:01.999872",
        "meta_mean_motion": 15.98583507,
        "meta_eccentricity": 0.00040808,
        "meta_inclination": 69.9928,
        "meta_ra_of_asc_node": 308.9956,
        "meta_arg_of_pericenter": 265.6687,
        "meta_mean_anomaly": 146.7897,
        "meta_ephemeris_type": 0,
        "meta_classification_type": "U",
        "meta_norad_cat_id": 67022,
        "meta_element_set_no": 999,
        "meta_rev_at_epoch": 238,
        "meta_bstar": -0.0023994264,
        "meta_mean_motion_dot": -0.0113268,
        "meta_mean_motion_ddot": 0.00040739888,
        "tle_line1": "1 67022U 25293V   25351.83335648 -.01132680  40740-3 -23994-2 0  9994",
        "tle_line2": "2 67022  69.9928 308.9956 0004080 265.6687 146.7897 15.98583507  2380"
      },
      "geometry": {
        "type": "Point",
        "coordinates": [
          126.4892113282919,
          -2.3546301832676915
        ]
      }
    },
    {
      "type": "Feature",
      "properties": {
        "norad_id": 67023,
        "name": "STARLINK-36191",
        "group": "last-30-days",
        "lat": -4.319943284095095,
        "lon": 127.20515491335384,
        "alt_km": 287.7189589942045,
        "timestamp": "2025-12-18T23:35:47.784218+00:00",
        "meta_object_name": "STARLINK-36191",
        "meta_object_id": "2025-293W",
        "meta_epoch": "2025-12-17T20:00:01.999872",
        "meta_mean_motion": 15.98676289,
        "meta_eccentricity": 0.00041437,
        "meta_inclination": 69.9927,
        "meta_ra_of_asc_node": 308.993,
        "meta_arg_of_pericenter": 267.9953,
        "meta_mean_anomaly": 146.3289,
        "meta_ephemeris_type": 0,
        "meta_classification_type": "U",
        "meta_norad_cat_id": 67023,
        "meta_element_set_no": 999,
        "meta_rev_at_epoch": 238,
        "meta_bstar": -0.0024630091,
        "meta_mean_motion_dot": -0.01168413,
        "meta_mean_motion_ddot": 0.00043184425,
        "tle_line1": "1 67023U 25293W   25351.83335648 -.01168413  43184-3 -24630-2 0  9991",
        "tle_line2": "2 67023  69.9927 308.9930 0004143 267.9953 146.3289 15.98676289  2384"
      },
      "geometry": {
        "type": "Point",
        "coordinates": [
          127.20515491335384,
          -4.319943284095095
        ]
      }
    },
    {
      "type": "Feature",
      "properties": {
        "norad_id": 67024,
        "name": "STARLINK-36192",
        "group": "last-30-days",
        "lat": -6.621831291201854,
        "lon": 128.04948513906461,
        "alt_km": 287.636597808073,
        "timestamp": "2025-12-18T23:35:47.784228+00:00",
        "meta_object_name": "STARLINK-36192",
        "meta_object_id": "2025-293X",
        "meta_epoch": "2025-12-17T20:00:01.999872",
        "meta_mean_motion": 15.98771083,
        "meta_eccentricity": 0.00041292,
        "meta_inclination": 69.9928,
        "meta_ra_of_asc_node": 308.9906,
        "meta_arg_of_pericenter": 266.5369,
        "meta_mean_anomaly": 149.9086,
        "meta_ephemeris_type": 0,
        "meta_classification_type": "U",
        "meta_norad_cat_id": 67024,
        "meta_element_set_no": 999,
        "meta_rev_at_epoch": 238,
        "meta_bstar": -0.0024804326,
        "meta_mean_motion_dot": -0.01182777,
        "meta_mean_motion_ddot": 0.00044213782,
        "tle_line1": "1 67024U 25293X   25351.83335648 -.01182777  44214-3 -24804-2 0  9999",
        "tle_line2": "2 67024  69.9928 308.9906 0004129 266.5369 149.9086 15.98771083  2381"
      },
      "geometry": {
        "type": "Point",
        "coordinates": [
          128.04948513906461,
          -6.621831291201854
        ]
      }
    },
    {
      "type": "Feature",
      "properties": {
        "norad_id": 67025,
        "name": "STARLINK-36178",
        "group": "last-30-days",
        "lat": -8.473872711924045,
        "lon": 128.7346513106558,
        "alt_km": 287.61156176700297,
        "timestamp": "2025-12-18T23:35:47.784238+00:00",
        "meta_object_name": "STARLINK-36178",
        "meta_object_id": "2025-293Y",
        "meta_epoch": "2025-12-17T20:00:01.999872",
        "meta_mean_motion": 15.98843512,
        "meta_eccentricity": 0.00040689,
        "meta_inclination": 69.9927,
        "meta_ra_of_asc_node": 308.9885,
        "meta_arg_of_pericenter": 266.2434,
        "meta_mean_anomaly": 151.9127,
        "meta_ephemeris_type": 0,
        "meta_classification_type": "U",
        "meta_norad_cat_id": 67025,
        "meta_element_set_no": 999,
        "meta_rev_at_epoch": 238,
        "meta_bstar": -0.0024886786,
        "meta_mean_motion_dot": -0.01191407,
        "meta_mean_motion_ddot": 0.00044845705,
        "tle_line1": "1 67025U 25293Y   25351.83335648 -.01191407  44846-3 -24887-2 0  9992",
        "tle_line2": "2 67025  69.9927 308.9885 0004068 266.2434 151.9127 15.98843512  2385"
      },
      "geometry": {
        "type": "Point",
        "coordinates": [
          128.7346513106558,
          -8.473872711924045
        ]
      }
    }
  ]
}